CCSDS_OMM_VERS = 2.0
CREATION_DATE  = 
ORIGINATOR     = 

OBJECT_NAME    = 2025-234B
OBJECT_ID      = 2025-234B
CENTER_NAME    = EARTH
REF_FRAME      = TEME
TIME_SYSTEM    = UTC
MEAN_ELEMENT_THEORY = SGP/SGP4

EPOCH          = 2025-11-11T06:44:13.427808
MEAN_MOTION    = 15.21314380
ECCENTRICITY   = .00145508
INCLINATION    = 97.5027
RA_OF_ASC_NODE = 20.8640
ARG_OF_PERICENTER = 195.8246
MEAN_ANOMALY   = 164.2537

EPHEMERIS_TYPE = 0
CLASSIFICATION_TYPE = U
NORAD_CAT_ID   = 66054
ELEMENT_SET_NO = 999
REV_AT_EPOCH   = 352
BSTAR          = .4926899E-3
MEAN_MOTION_DOT = .10993E-3
MEAN_MOTION_DDOT = 0

CCSDS_OMM_VERS = 2.0
CREATION_DATE  = 
ORIGINATOR     = 

OBJECT_NAME    = 2025-234C
OBJECT_ID      = 2025-234C
CENTER_NAME    = EARTH
REF_FRAME      = TEME
TIME_SYSTEM    = UTC
MEAN_ELEMENT_THEORY = SGP/SGP4

EPOCH          = 2025-11-11T06:41:29.367168
MEAN_MOTION    = 15.21455152
ECCENTRICITY   = .00152037
INCLINATION    = 97.4551
RA_OF_ASC_NODE = 20.7283
ARG_OF_PERICENTER = 197.6532
MEAN_ANOMALY   = 162.4178

EPHEMERIS_TYPE = 0
CLASSIFICATION_TYPE = U
NORAD_CAT_ID   = 66055
ELEMENT_SET_NO = 999
REV_AT_EPOCH   = 352
BSTAR          = .41397621E-3
MEAN_MOTION_DOT = .9265E-4
MEAN_MOTION_DDOT = 0

CCSDS_OMM_VERS = 2.0
CREATION_DATE  = 
ORIGINATOR     = 

OBJECT_NAME    = 2025-234D
OBJECT_ID      = 2025-234D
CENTER_NAME    = EARTH
REF_FRAME      = TEME
TIME_SYSTEM    = UTC
MEAN_ELEMENT_THEORY = SGP/SGP4

EPOCH          = 2025-11-11T06:36:04.042656
MEAN_MOTION    = 15.22096572
ECCENTRICITY   = .00150681
INCLINATION    = 97.4528
RA_OF_ASC_NODE = 20.7267
ARG_OF_PERICENTER = 197.6439
MEAN_ANOMALY   = 162.4276

EPHEMERIS_TYPE = 0
CLASSIFICATION_TYPE = U
NORAD_CAT_ID   = 66056
ELEMENT_SET_NO = 999
REV_AT_EPOCH   = 351
BSTAR          = .1309833E-2
MEAN_MOTION_DOT = .30108E-3
MEAN_MOTION_DDOT = 0

CCSDS_OMM_VERS = 2.0
CREATION_DATE  = 
ORIGINATOR     = 

OBJECT_NAME    = 2025-234E
OBJECT_ID      = 2025-234E
CENTER_NAME    = EARTH
REF_FRAME      = TEME
TIME_SYSTEM    = UTC
MEAN_ELEMENT_THEORY = SGP/SGP4

EPOCH          = 2025-11-11T05:52:33.628224
MEAN_MOTION    = 15.37436195
ECCENTRICITY   = .00113953
INCLINATION    = 97.4793
RA_OF_ASC_NODE = 21.0198
ARG_OF_PERICENTER = 228.0074
MEAN_ANOMALY   = 132.0201

EPHEMERIS_TYPE = 0
CLASSIFICATION_TYPE = U
NORAD_CAT_ID   = 66057
ELEMENT_SET_NO = 999
REV_AT_EPOCH   = 353
BSTAR          = .15360193E-1
MEAN_MOTION_DOT = .602997E-2
MEAN_MOTION_DDOT = 0

CCSDS_OMM_VERS = 2.0
CREATION_DATE  = 
ORIGINATOR     = 

OBJECT_NAME    = STARLINK-35552
OBJECT_ID      = 2025-235A
CENTER_NAME    = EARTH
REF_FRAME      = TEME
TIME_SYSTEM    = UTC
MEAN_ELEMENT_THEORY = SGP/SGP4

EPOCH          = 2025-11-11T08:00:03.000384
MEAN_MOTION    = 15.73211555
ECCENTRICITY   = .00026245
INCLINATION    = 53.1558
RA_OF_ASC_NODE = 76.5299
ARG_OF_PERICENTER = 19.7293
MEAN_ANOMALY   = 173.5755

EPHEMERIS_TYPE = 0
CLASSIFICATION_TYPE = U
NORAD_CAT_ID   = 66058
ELEMENT_SET_NO = 999
REV_AT_EPOCH   = 482
BSTAR          = .13538995E-2
MEAN_MOTION_DOT = .193962E-2
MEAN_MOTION_DDOT = 0

CCSDS_OMM_VERS = 2.0
CREATION_DATE  = 
ORIGINATOR     = 

OBJECT_NAME    = STARLINK-35560
OBJECT_ID      = 2025-235B
CENTER_NAME    = EARTH
REF_FRAME      = TEME
TIME_SYSTEM    = UTC
MEAN_ELEMENT_THEORY = SGP/SGP4

EPOCH          = 2025-11-11T08:00:03.000384
MEAN_MOTION    = 15.49293649
ECCENTRICITY   = .00011774
INCLINATION    = 53.1599
RA_OF_ASC_NODE = 77.2860
ARG_OF_PERICENTER = 77.0182
MEAN_ANOMALY   = 103.4077

EPHEMERIS_TYPE = 0
CLASSIFICATION_TYPE = U
NORAD_CAT_ID   = 66059
ELEMENT_SET_NO = 999
REV_AT_EPOCH   = 482
BSTAR          = -.25564337E-3
MEAN_MOTION_DOT = -.14632E-3
MEAN_MOTION_DDOT = 0

CCSDS_OMM_VERS = 2.0
CREATION_DATE  = 
ORIGINATOR     = 

OBJECT_NAME    = STARLINK-35558
OBJECT_ID      = 2025-235C
CENTER_NAME    = EARTH
REF_FRAME      = TEME
TIME_SYSTEM    = UTC
MEAN_ELEMENT_THEORY = SGP/SGP4

EPOCH          = 2025-11-11T08:00:03.000384
MEAN_MOTION    = 15.49259541
ECCENTRICITY   = .00012609
INCLINATION    = 53.1599
RA_OF_ASC_NODE = 77.2811
ARG_OF_PERICENTER = 71.8678
MEAN_ANOMALY   = 110.4763

EPHEMERIS_TYPE = 0
CLASSIFICATION_TYPE = U
NORAD_CAT_ID   = 66060
ELEMENT_SET_NO = 999
REV_AT_EPOCH   = 482
BSTAR          = .13342189E-2
MEAN_MOTION_DOT = .74335E-3
MEAN_MOTION_DDOT = 0

CCSDS_OMM_VERS = 2.0
CREATION_DATE  = 
ORIGINATOR     = 

OBJECT_NAME    = STARLINK-35566
OBJECT_ID      = 2025-235D
CENTER_NAME    = EARTH
REF_FRAME      = TEME
TIME_SYSTEM    = UTC
MEAN_ELEMENT_THEORY = SGP/SGP4

EPOCH          = 2025-11-11T08:00:03.000384
MEAN_MOTION    = 15.49297062
ECCENTRICITY   = .0001264
INCLINATION    = 53.1599
RA_OF_ASC_NODE = 77.2780
ARG_OF_PERICENTER = 77.3963
MEAN_ANOMALY   = 106.8610

EPHEMERIS_TYPE = 0
CLASSIFICATION_TYPE = U
NORAD_CAT_ID   = 66061
ELEMENT_SET_NO = 999
REV_AT_EPOCH   = 482
BSTAR          = -.31114053E-3
MEAN_MOTION_DOT = -.17706E-3
MEAN_MOTION_DDOT = 0

CCSDS_OMM_VERS = 2.0
CREATION_DATE  = 
ORIGINATOR     = 

OBJECT_NAME    = STARLINK-35421
OBJECT_ID      = 2025-235E
CENTER_NAME    = EARTH
REF_FRAME      = TEME
TIME_SYSTEM    = UTC
MEAN_ELEMENT_THEORY = SGP/SGP4

EPOCH          = 2025-11-11T08:00:03.000384
MEAN_MOTION    = 15.49298420
ECCENTRICITY   = .00012594
INCLINATION    = 53.1599
RA_OF_ASC_NODE = 77.2733
ARG_OF_PERICENTER = 72.3281
MEAN_ANOMALY   = 113.8489

EPHEMERIS_TYPE = 0
CLASSIFICATION_TYPE = U
NORAD_CAT_ID   = 66062
ELEMENT_SET_NO = 999
REV_AT_EPOCH   = 482
BSTAR          = -.40150027E-3
MEAN_MOTION_DOT = -.22705E-3
MEAN_MOTION_DDOT = 0

CCSDS_OMM_VERS = 2.0
CREATION_DATE  = 
ORIGINATOR     = 

OBJECT_NAME    = STARLINK-35562
OBJECT_ID      = 2025-235F
CENTER_NAME    = EARTH
REF_FRAME      = TEME
TIME_SYSTEM    = UTC
MEAN_ELEMENT_THEORY = SGP/SGP4

EPOCH          = 2025-11-11T08:00:03.000384
MEAN_MOTION    = 15.49290968
ECCENTRICITY   = .00012715
INCLINATION    = 53.1600
RA_OF_ASC_NODE = 77.2701
ARG_OF_PERICENTER = 99.5998
MEAN_ANOMALY   = 88.4941

EPHEMERIS_TYPE = 0
CLASSIFICATION_TYPE = U
NORAD_CAT_ID   = 66063
ELEMENT_SET_NO = 999
REV_AT_EPOCH   = 482
BSTAR          = -.10716536E-3
MEAN_MOTION_DOT = -.64E-4
MEAN_MOTION_DDOT = 0

CCSDS_OMM_VERS = 2.0
CREATION_DATE  = 
ORIGINATOR     = 

OBJECT_NAME    = STARLINK-35542
OBJECT_ID      = 2025-235G
CENTER_NAME    = EARTH
REF_FRAME      = TEME
TIME_SYSTEM    = UTC
MEAN_ELEMENT_THEORY = SGP/SGP4

EPOCH          = 2025-11-11T08:00:03.000384
MEAN_MOTION    = 15.45354886
ECCENTRICITY   = .00013917
INCLINATION    = 53.1597
RA_OF_ASC_NODE = 77.2773
ARG_OF_PERICENTER = 79.8785
MEAN_ANOMALY   = 103.8716

EPHEMERIS_TYPE = 0
CLASSIFICATION_TYPE = U
NORAD_CAT_ID   = 66064
ELEMENT_SET_NO = 999
REV_AT_EPOCH   = 482
BSTAR          = -.47207343E-1
MEAN_MOTION_DOT = -.2037484E-1
MEAN_MOTION_DDOT = 0

CCSDS_OMM_VERS = 2.0
CREATION_DATE  = 
ORIGINATOR     = 

OBJECT_NAME    = STARLINK-35375
OBJECT_ID      = 2025-235H
CENTER_NAME    = EARTH
REF_FRAME      = TEME
TIME_SYSTEM    = UTC
MEAN_ELEMENT_THEORY = SGP/SGP4

EPOCH          = 2025-11-11T08:00:03.000384
MEAN_MOTION    = 15.48433539
ECCENTRICITY   = .00014186
INCLINATION    = 53.1598
RA_OF_ASC_NODE = 77.2626
ARG_OF_PERICENTER = 112.2260
MEAN_ANOMALY   = 79.3776

EPHEMERIS_TYPE = 0
CLASSIFICATION_TYPE = U
NORAD_CAT_ID   = 66065
ELEMENT_SET_NO = 999
REV_AT_EPOCH   = 482
BSTAR          = -.42421003E-1
MEAN_MOTION_DOT = -.2038621E-1
MEAN_MOTION_DDOT = 0

