2025-234B               
1 66054U 25234B   25315.28071097  .00010993  00000+0  49269-3 0  9991
2 66054  97.5027  20.8640 0014550 195.8246 164.2537 15.21314380  3529
2025-234C               
1 66055U 25234C   25315.27881212  .00009265  00000+0  41398-3 0  9994
2 66055  97.4551  20.7283 0015203 197.6532 162.4178 15.21455152  3521
2025-234D               
1 66056U 25234D   25315.27504679  .00030108  00000+0  13098-2 0  9999
2 66056  97.4528  20.7267 0015068 197.6439 162.4276 15.22096572  3519
2025-234E               
1 66057U 25234E   25315.24483366  .00602997  00000+0  15360-1 0  9990
2 66057  97.4793  21.0198 0011395 228.0074 132.0201 15.37436195  3532
STARLINK-35552          
1 66058U 25235A   25315.33336806  .00193962  00000+0  13539-2 0  9992
2 66058  53.1558  76.5299 0002624  19.7293 173.5755 15.73211555  4829
STARLINK-35560          
1 66059U 25235B   25315.33336806 -.00014632  00000+0 -25564-3 0  9993
2 66059  53.1599  77.2860 0001177  77.0182 103.4077 15.49293649  4829
STARLINK-35558          
1 66060U 25235C   25315.33336806  .00074335  00000+0  13342-2 0  9999
2 66060  53.1599  77.2811 0001260  71.8678 110.4763 15.49259541  4825
STARLINK-35566          
1 66061U 25235D   25315.33336806 -.00017706  00000+0 -31114-3 0  9999
2 66061  53.1599  77.2780 0001264  77.3963 106.8610 15.49297062  4823
STARLINK-35421          
1 66062U 25235E   25315.33336806 -.00022705  00000+0 -40150-3 0  9995
2 66062  53.1599  77.2733 0001259  72.3281 113.8489 15.49298420  4825
STARLINK-35562          
1 66063U 25235F   25315.33336806 -.00006400  00000+0 -10717-3 0  9996
2 66063  53.1600  77.2701 0001271  99.5998  88.4941 15.49290968  4823
STARLINK-35542          
1 66064U 25235G   25315.33336806 -.02037484  00000+0 -47207-1 0  9997
2 66064  53.1597  77.2773 0001391  79.8785 103.8716 15.45354886  4824
STARLINK-35375          
1 66065U 25235H   25315.33336806 -.02038621  00000+0 -42421-1 0  9995
2 66065  53.1598  77.2626 0001418 112.2260  79.3776 15.48433539  4822
